[{"OBJECT_NAME":"TANAGER-1","OBJECT_ID":"2024-149AR","EPOCH":"2026-03-09T19:44:53.485728","MEAN_MOTION":15.43548408,"ECCENTRICITY":0.00097475,"INCLINATION":97.3806,"RA_OF_ASC_NODE":162.1974,"ARG_OF_PERICENTER":227.382,"MEAN_ANOMALY":132.6607,"EPHEMERIS_TYPE":0,"CLASSIFICATION_TYPE":"U","NORAD_CAT_ID":60507,"ELEMENT_SET_NO":999,"REV_AT_EPOCH":8770,"BSTAR":0.00054444932,"MEAN_MOTION_DOT":0.00024437,"MEAN_MOTION_DDOT":0},{"OBJECT_NAME":"SL-3 DEB","OBJECT_ID":"1983-075F","EPOCH":"2026-03-09T19:42:52.235424","MEAN_MOTION":15.39643406,"ECCENTRICITY":0.00197846,"INCLINATION":97.8048,"RA_OF_ASC_NODE":24.2009,"ARG_OF_PERICENTER":43.7659,"MEAN_ANOMALY":316.5149,"EPHEMERIS_TYPE":0,"CLASSIFICATION_TYPE":"U","NORAD_CAT_ID":14928,"ELEMENT_SET_NO":999,"REV_AT_EPOCH":30350,"BSTAR":0.0003796907,"MEAN_MOTION_DOT":0.00014993,"MEAN_MOTION_DDOT":0}]
